{ "45016": {"name": "JILIN-1 KUANFU 01", "norad_id": "45016", "line1": "1 45016U 20003A   26187.22820808  .00003754  00000+0  22949-3 0  9992", "line2": "2 45016  97.5015 260.8126 0008590 230.6774 129.3695 15.10833522358204", "country": "China", "operator": "Chang Guang Satellite Techno", "sensor": "Optical", "resolution_m": 1.0, "notes": "book:JILIN-1 SPECTRUM-01,02", "fetched_at": 1783341742.6236053, "stale": false}, "49003": {"name": "JILIN-1 KUANFU-01B", "norad_id": "49003", "line1": "1 49003U 21061A   26187.26067309  .00000960  00000+0  63334-4 0  9990", "line2": "2 49003  97.5200 263.1014 0006783  10.6320 349.5051 15.09778938276227", "country": "China", "operator": "Chang Guang Satellite Techno", "sensor": "Optical", "resolution_m": 1.0, "notes": "book:JILIN-1 SPECTRUM-01,02", "fetched_at": 1783341744.6090753, "stale": false}, "52443": {"name": "JILIN-1 KUANFU 01C", "norad_id": "52443", "line1": "1 52443U 22048A   26187.25130350  .00002784  00000+0  17685-3 0  9997", "line2": "2 52443  97.5247 264.0790 0016772 253.0439 106.8952 15.09567579230078", "country": "China", "operator": "Chang Guang Satellite Techno", "sensor": "Optical", "resolution_m": 1.0, "notes": "book:JILIN-1 SPECTRUM-01,02", "fetched_at": 1783341746.9231331, "stale": false}, "57696": {"name": "JILIN-1 KUANFU 02A", "norad_id": "57696", "line1": "1 57696U 23127A   26187.21151306  .00005297  00000+0  32276-3 0  9996", "line2": "2 57696  97.5563 280.7893 0010029 271.9865  88.0216 15.10764692158502", "country": "China", "operator": "Chang Guang Satellite Techno", "sensor": "Optical", "resolution_m": 1.0, "notes": "book:JILIN-1 SPECTRUM-01,02", "fetched_at": 1783341752.7276137, "stale": false}, "61189": {"name": "JILIN-01 KUANFU 02B 1", "norad_id": "61189", "line1": "1 61189U 24169A   26187.21483766  .00003710  00000+0  23859-3 0  9998", "line2": "2 61189  97.5568 276.4433 0002321  15.5728 344.5572 15.09015600 98691", "country": "China", "operator": "Chang Guang Satellite Techno", "sensor": "Optical", "resolution_m": 1.0, "notes": "book:JILIN-1 SPECTRUM-01,02", "fetched_at": 1783341753.0711193, "stale": false}, "61190": {"name": "JILIN-01 KUANFU 02B 2", "norad_id": "61190", "line1": "1 61190U 24169B   26187.26054764  .00004633  00000+0  29710-3 0  9994", "line2": "2 61190  97.5564 275.8742 0005202 318.1648  41.9182 15.08980293 98704", "country": "China", "operator": "Chang Guang Satellite Techno", "sensor": "Optical", "resolution_m": 1.0, "notes": "book:JILIN-1 SPECTRUM-01,02", "fetched_at": 1783341753.405683, "stale": false}, "61191": {"name": "JILIN-01 KUANFU 02B 3", "norad_id": "61191", "line1": "1 61191U 24169C   26187.20339602  .00004533  00000+0  29015-3 0  9993", "line2": "2 61191  97.5558 276.2507 0012481 239.1059 120.8943 15.09016436 98697", "country": "China", "operator": "Chang Guang Satellite Techno", "sensor": "Optical", "resolution_m": 1.0, "notes": "book:JILIN-1 SPECTRUM-01,02", "fetched_at": 1783341753.7529304, "stale": false}, "61192": {"name": "JILIN-01 KUANFU 02B 4", "norad_id": "61192", "line1": "1 61192U 24169D   26187.17206377  .00004127  00000+0  26455-3 0  9996", "line2": "2 61192  97.5528 275.7508 0013155 193.3820 166.7062 15.09001361 98698", "country": "China", "operator": "Chang Guang Satellite Techno", "sensor": "Optical", "resolution_m": 1.0, "notes": "book:JILIN-1 SPECTRUM-01,02", "fetched_at": 1783341754.1147063, "stale": false}, "61193": {"name": "JILIN-01 KUANFU 02B 5", "norad_id": "61193", "line1": "1 61193U 24169E   26187.15929753  .00003473  00000+0  22314-3 0  9998", "line2": "2 61193  97.5572 276.5291 0012322 218.9579 141.0763 15.09034170 98694", "country": "China", "operator": "Chang Guang Satellite Techno", "sensor": "Optical", "resolution_m": 1.0, "notes": "book:JILIN-1 SPECTRUM-01,02", "fetched_at": 1783341754.465792, "stale": false}, "61194": {"name": "JILIN-01 KUANFU 02B 6", "norad_id": "61194", "line1": "1 61194U 24169F   26187.24900828  .00003989  00000+0  25575-3 0  9995", "line2": "2 61194  97.5556 276.5126 0015024 254.2556 105.7016 15.08997520 98711", "country": "China", "operator": "Chang Guang Satellite Techno", "sensor": "Optical", "resolution_m": 1.0, "notes": "book:JILIN-1 SPECTRUM-01,02", "fetched_at": 1783341754.8133185, "stale": false}}