{"fetched_at":"2026-07-06T18:35:39.768Z","source":"https://celestrak.org/NORAD/elements/gp.php?NAME=JILIN&FORMAT=JSON","constellation":"jilin-1-kuanfu","records":[{"OBJECT_NAME":"JILIN-1 KUANFU 01","OBJECT_ID":"2020-003A","EPOCH":"2026-07-06T05:28:37.178112","CLASSIFICATION_TYPE":"U","MEAN_MOTION":15.10833522,"ECCENTRICITY":0.00085906,"INCLINATION":97.5015,"RA_OF_ASC_NODE":260.8126,"ARG_OF_PERICENTER":230.6774,"MEAN_ANOMALY":129.3695,"EPHEMERIS_TYPE":0,"NORAD_CAT_ID":45016,"ELEMENT_SET_NO":999,"REV_AT_EPOCH":35820,"BSTAR":0.00022949222,"MEAN_MOTION_DOT":0.00003754,"MEAN_MOTION_DDOT":0},{"OBJECT_NAME":"JILIN-1 KUANFU-01B","OBJECT_ID":"2021-061A","EPOCH":"2026-07-06T06:15:22.154976","CLASSIFICATION_TYPE":"U","MEAN_MOTION":15.09778938,"ECCENTRICITY":0.00067834,"INCLINATION":97.52,"RA_OF_ASC_NODE":263.1014,"ARG_OF_PERICENTER":10.632,"MEAN_ANOMALY":349.5051,"EPHEMERIS_TYPE":0,"NORAD_CAT_ID":49003,"ELEMENT_SET_NO":999,"REV_AT_EPOCH":27622,"BSTAR":0.000063333862,"MEAN_MOTION_DOT":0.0000096,"MEAN_MOTION_DDOT":0},{"OBJECT_NAME":"JILIN-1 KUANFU 01C","OBJECT_ID":"2022-048A","EPOCH":"2026-07-06T06:01:52.622400","CLASSIFICATION_TYPE":"U","MEAN_MOTION":15.09567579,"ECCENTRICITY":0.00167729,"INCLINATION":97.5247,"RA_OF_ASC_NODE":264.079,"ARG_OF_PERICENTER":253.0439,"MEAN_ANOMALY":106.8952,"EPHEMERIS_TYPE":0,"NORAD_CAT_ID":52443,"ELEMENT_SET_NO":999,"REV_AT_EPOCH":23007,"BSTAR":0.00017685491,"MEAN_MOTION_DOT":0.00002784,"MEAN_MOTION_DDOT":0},{"OBJECT_NAME":"JILIN-1 KUANFU 02A","OBJECT_ID":"2023-127A","EPOCH":"2026-07-06T05:04:34.728384","CLASSIFICATION_TYPE":"U","MEAN_MOTION":15.10764692,"ECCENTRICITY":0.00100298,"INCLINATION":97.5563,"RA_OF_ASC_NODE":280.7893,"ARG_OF_PERICENTER":271.9865,"MEAN_ANOMALY":88.0216,"EPHEMERIS_TYPE":0,"NORAD_CAT_ID":57696,"ELEMENT_SET_NO":999,"REV_AT_EPOCH":15850,"BSTAR":0.00032275882,"MEAN_MOTION_DOT":0.00005297,"MEAN_MOTION_DDOT":0},{"OBJECT_NAME":"JILIN-01 KUANFU 02B 1","OBJECT_ID":"2024-169A","EPOCH":"2026-07-06T05:09:21.973824","CLASSIFICATION_TYPE":"U","MEAN_MOTION":15.090156,"ECCENTRICITY":0.00023215,"INCLINATION":97.5568,"RA_OF_ASC_NODE":276.4433,"ARG_OF_PERICENTER":15.5728,"MEAN_ANOMALY":344.5572,"EPHEMERIS_TYPE":0,"NORAD_CAT_ID":61189,"ELEMENT_SET_NO":999,"REV_AT_EPOCH":9869,"BSTAR":0.0002385872,"MEAN_MOTION_DOT":0.0000371,"MEAN_MOTION_DDOT":0},{"OBJECT_NAME":"JILIN-01 KUANFU 02B 2","OBJECT_ID":"2024-169B","EPOCH":"2026-07-06T06:15:11.316096","CLASSIFICATION_TYPE":"U","MEAN_MOTION":15.08980293,"ECCENTRICITY":0.00052025,"INCLINATION":97.5564,"RA_OF_ASC_NODE":275.8742,"ARG_OF_PERICENTER":318.1648,"MEAN_ANOMALY":41.9182,"EPHEMERIS_TYPE":0,"NORAD_CAT_ID":61190,"ELEMENT_SET_NO":999,"REV_AT_EPOCH":9870,"BSTAR":0.00029710126,"MEAN_MOTION_DOT":0.00004633,"MEAN_MOTION_DDOT":0},{"OBJECT_NAME":"JILIN-01 KUANFU 02B 3","OBJECT_ID":"2024-169C","EPOCH":"2026-07-06T04:52:53.416128","CLASSIFICATION_TYPE":"U","MEAN_MOTION":15.09016436,"ECCENTRICITY":0.00124819,"INCLINATION":97.5558,"RA_OF_ASC_NODE":276.2507,"ARG_OF_PERICENTER":239.1059,"MEAN_ANOMALY":120.8943,"EPHEMERIS_TYPE":0,"NORAD_CAT_ID":61191,"ELEMENT_SET_NO":999,"REV_AT_EPOCH":9869,"BSTAR":0.00029014818,"MEAN_MOTION_DOT":0.00004533,"MEAN_MOTION_DDOT":0},{"OBJECT_NAME":"JILIN-01 KUANFU 02B 4","OBJECT_ID":"2024-169D","EPOCH":"2026-07-06T04:07:46.309728","CLASSIFICATION_TYPE":"U","MEAN_MOTION":15.09001361,"ECCENTRICITY":0.0013155,"INCLINATION":97.5528,"RA_OF_ASC_NODE":275.7508,"ARG_OF_PERICENTER":193.382,"MEAN_ANOMALY":166.7062,"EPHEMERIS_TYPE":0,"NORAD_CAT_ID":61192,"ELEMENT_SET_NO":999,"REV_AT_EPOCH":9869,"BSTAR":0.00026455415,"MEAN_MOTION_DOT":0.00004127,"MEAN_MOTION_DDOT":0},{"OBJECT_NAME":"JILIN-01 KUANFU 02B 5","OBJECT_ID":"2024-169E","EPOCH":"2026-07-06T03:49:23.306592","CLASSIFICATION_TYPE":"U","MEAN_MOTION":15.0903417,"ECCENTRICITY":0.00123225,"INCLINATION":97.5572,"RA_OF_ASC_NODE":276.5291,"ARG_OF_PERICENTER":218.9579,"MEAN_ANOMALY":141.0763,"EPHEMERIS_TYPE":0,"NORAD_CAT_ID":61193,"ELEMENT_SET_NO":999,"REV_AT_EPOCH":9869,"BSTAR":0.0002231433,"MEAN_MOTION_DOT":0.00003473,"MEAN_MOTION_DDOT":0},{"OBJECT_NAME":"JILIN-01 KUANFU 02B 6","OBJECT_ID":"2024-169F","EPOCH":"2026-07-06T05:58:34.315392","CLASSIFICATION_TYPE":"U","MEAN_MOTION":15.0899752,"ECCENTRICITY":0.00150245,"INCLINATION":97.5556,"RA_OF_ASC_NODE":276.5126,"ARG_OF_PERICENTER":254.2556,"MEAN_ANOMALY":105.7016,"EPHEMERIS_TYPE":0,"NORAD_CAT_ID":61194,"ELEMENT_SET_NO":999,"REV_AT_EPOCH":9871,"BSTAR":0.00025575105,"MEAN_MOTION_DOT":0.00003989,"MEAN_MOTION_DDOT":0}]}
